IRIDIUM 63              
1 25286U 98021B   25258.17272711  .00000541  00000+0  17731-3 0  9994
2 25286  86.3972  44.3517 0002082  86.2127 273.9308 14.36611865436761
IRIDIUM 69              
1 25319U 98026A   25258.18673588  .00000511  00000+0  15272-3 0  9999
2 25319  86.3939  57.3570 0004503  88.8664 271.3051 14.41045366436027
IRIDIUM 71              
1 25320U 98026B   25258.18202598  .00000538  00000+0  16056-3 0  9990
2 25320  86.3948  52.0364 0003726 119.6211 240.5361 14.41226987436559
IRIDIUM 73              
1 25344U 98032C   25258.28638580  .00000730  00000+0  17642-3 0  9994
2 25344  86.4467   8.5469 0002740  82.8200 277.3317 14.51817154443637
IRIDIUM 82              
1 25467U 98051A   25257.97541676  .00023877  00000+0  60548-3 0  9995
2 25467  86.3613  65.4223 0076245 315.4850  44.0292 15.36538098437727
